0 FENGYUN 1C DEB
1 31054U 99025BEY 13281.56835178  .00000275  00000-0  18106-3 0  8785
2 31054 099.0167 280.4036 0011343 084.4450 044.0793 14.10130129341015
0 FENGYUN 1C DEB
1 31054U 99025BEY 13283.96614907  .00000345  00000-0  22023-3 0  8798
2 31054 099.0165 282.8070 0011306 078.4069 335.7376 14.10131990341356
0 FENGYUN 1C DEB
1 31054U 99025BEY 13286.46914338  .00000098  00000-0  80641-4 0  8805
2 31054 099.0163 285.3157 0011252 071.9763 081.5269 14.10135517341702
0 FENGYUN 1C DEB
1 31054U 99025BEY 13288.93406747  .00000068  00000-0  63992-4 0  8817
2 31054 099.0164 287.7860 0011171 065.4575 354.2817 14.10137601342053
0 FENGYUN 1C DEB
1 31054U 99025BEY 13291.85477119  .00000311  00000-0  20145-3 0  8827
2 31054 099.0168 290.7130 0011071 057.7499 060.7358 14.10136640342465
0 FENGYUN 1C DEB
1 31054U 99025BEY 13293.97077404  .00000406  00000-0  25506-3 0  8837
2 31054 099.0170 292.8336 0010981 052.2160 002.2087 14.10137603342766
